[{"OBJECT_NAME":"ONEWEB-0647","OBJECT_ID":"2023-043AK","EPOCH":"2025-10-23T12:15:32.518656","MEAN_MOTION":13.15547889,"ECCENTRICITY":0.0001732,"INCLINATION":87.8965,"RA_OF_ASC_NODE":306.4684,"ARG_OF_PERICENTER":96.5494,"MEAN_ANOMALY":263.5834,"EPHEMERIS_TYPE":0,"CLASSIFICATION_TYPE":"U","NORAD_CAT_ID":56079,"ELEMENT_SET_NO":999,"REV_AT_EPOCH":12530,"BSTAR":-0.00030818,"MEAN_MOTION_DOT":-1.03e-6,"MEAN_MOTION_DDOT":0},{"OBJECT_NAME":"ONEWEB-0651","OBJECT_ID":"2023-043AL","EPOCH":"2025-10-23T12:08:40.212672","MEAN_MOTION":13.15548245,"ECCENTRICITY":0.0001612,"INCLINATION":87.8967,"RA_OF_ASC_NODE":306.4617,"ARG_OF_PERICENTER":86.5779,"MEAN_ANOMALY":273.5535,"EPHEMERIS_TYPE":0,"CLASSIFICATION_TYPE":"U","NORAD_CAT_ID":56080,"ELEMENT_SET_NO":999,"REV_AT_EPOCH":12650,"BSTAR":-0.00080516,"MEAN_MOTION_DOT":-2.9e-6,"MEAN_MOTION_DDOT":0},{"OBJECT_NAME":"ONEWEB-0718","OBJECT_ID":"2023-043AM","EPOCH":"2025-10-23T12:01:51.532032","MEAN_MOTION":13.15549834,"ECCENTRICITY":0.0002357,"INCLINATION":87.8967,"RA_OF_ASC_NODE":306.4434,"ARG_OF_PERICENTER":85.7892,"MEAN_ANOMALY":274.3508,"EPHEMERIS_TYPE":0,"CLASSIFICATION_TYPE":"U","NORAD_CAT_ID":56081,"ELEMENT_SET_NO":999,"REV_AT_EPOCH":12531,"BSTAR":-0.00010142,"MEAN_MOTION_DOT":-2.5e-7,"MEAN_MOTION_DDOT":0},{"OBJECT_NAME":"ONEWEB-0561","OBJECT_ID":"2023-068A","EPOCH":"2025-10-23T12:48:20.047104","MEAN_MOTION":13.2077061,"ECCENTRICITY":0.0001448,"INCLINATION":87.9197,"RA_OF_ASC_NODE":321.6509,"ARG_OF_PERICENTER":103.4449,"MEAN_ANOMALY":256.6846,"EPHEMERIS_TYPE":0,"CLASSIFICATION_TYPE":"U","NORAD_CAT_ID":56710,"ELEMENT_SET_NO":999,"REV_AT_EPOCH":11826,"BSTAR":-0.00010329,"MEAN_MOTION_DOT":-2.9e-7,"MEAN_MOTION_DDOT":0},{"OBJECT_NAME":"ONEWEB-0668","OBJECT_ID":"2023-068B","EPOCH":"2025-10-23T16:00:03.998880","MEAN_MOTION":13.18000129,"ECCENTRICITY":0.0002221,"INCLINATION":87.8989,"RA_OF_ASC_NODE":275.8782,"ARG_OF_PERICENTER":80.2639,"MEAN_ANOMALY":9.3331,"EPHEMERIS_TYPE":0,"CLASSIFICATION_TYPE":"U","NORAD_CAT_ID":56711,"ELEMENT_SET_NO":999,"REV_AT_EPOCH":510,"BSTAR":0.033381,"MEAN_MOTION_DOT":0.00013059,"MEAN_MOTION_DDOT":0},{"OBJECT_NAME":"ONEWEB-0676","OBJECT_ID":"2023-068C","EPOCH":"2025-10-23T16:57:05.043168","MEAN_MOTION":13.16596694,"ECCENTRICITY":0.0001744,"INCLINATION":87.8983,"RA_OF_ASC_NODE":275.8856,"ARG_OF_PERICENTER":87.4716,"MEAN_ANOMALY":272.6615,"EPHEMERIS_TYPE":0,"CLASSIFICATION_TYPE":"U","NORAD_CAT_ID":56712,"ELEMENT_SET_NO":999,"REV_AT_EPOCH":12058,"BSTAR":0.00033503,"MEAN_MOTION_DOT":1.41e-6,"MEAN_MOTION_DDOT":0},{"OBJECT_NAME":"ONEWEB-0677","OBJECT_ID":"2023-068D","EPOCH":"2025-10-23T10:43:20.584128","MEAN_MOTION":13.20771251,"ECCENTRICITY":0.0001753,"INCLINATION":87.9204,"RA_OF_ASC_NODE":321.6466,"ARG_OF_PERICENTER":90.5771,"MEAN_ANOMALY":269.5564,"EPHEMERIS_TYPE":0,"CLASSIFICATION_TYPE":"U","NORAD_CAT_ID":56713,"ELEMENT_SET_NO":999,"REV_AT_EPOCH":11855,"BSTAR":-8.8371e-5,"MEAN_MOTION_DOT":-2.3e-7,"MEAN_MOTION_DDOT":0},{"OBJECT_NAME":"ONEWEB-0678","OBJECT_ID":"2023-068E","EPOCH":"2025-10-23T11:16:13.034784","MEAN_MOTION":13.15548774,"ECCENTRICITY":0.0001849,"INCLINATION":87.8967,"RA_OF_ASC_NODE":306.4235,"ARG_OF_PERICENTER":103.2093,"MEAN_ANOMALY":256.9243,"EPHEMERIS_TYPE":0,"CLASSIFICATION_TYPE":"U","NORAD_CAT_ID":56714,"ELEMENT_SET_NO":999,"REV_AT_EPOCH":11816,"BSTAR":0.00031955,"MEAN_MOTION_DOT":1.33e-6,"MEAN_MOTION_DDOT":0},{"OBJECT_NAME":"ONEWEB-0679","OBJECT_ID":"2023-068F","EPOCH":"2025-10-23T10:29:41.525088","MEAN_MOTION":13.16594584,"ECCENTRICITY":0.0001791,"INCLINATION":87.8977,"RA_OF_ASC_NODE":275.926,"ARG_OF_PERICENTER":69.5934,"MEAN_ANOMALY":290.5389,"EPHEMERIS_TYPE":0,"CLASSIFICATION_TYPE":"U","NORAD_CAT_ID":56715,"ELEMENT_SET_NO":999,"REV_AT_EPOCH":12057,"BSTAR":-0.00015172,"MEAN_MOTION_DOT":-4.5e-7,"MEAN_MOTION_DDOT":0},{"OBJECT_NAME":"ONEWEB-0680","OBJECT_ID":"2023-068G","EPOCH":"2025-10-23T11:16:23.458944","MEAN_MOTION":13.2184892,"ECCENTRICITY":0.0002202,"INCLINATION":87.917,"RA_OF_ASC_NODE":291.1885,"ARG_OF_PERICENTER":73.7564,"MEAN_ANOMALY":286.3812,"EPHEMERIS_TYPE":0,"CLASSIFICATION_TYPE":"U","NORAD_CAT_ID":56716,"ELEMENT_SET_NO":999,"REV_AT_EPOCH":11982,"BSTAR":-0.0094091,"MEAN_MOTION_DOT":-3.873e-5,"MEAN_MOTION_DDOT":0},{"OBJECT_NAME":"ONEWEB-0681","OBJECT_ID":"2023-068H","EPOCH":"2025-10-23T10:46:44.397408","MEAN_MOTION":13.2178856,"ECCENTRICITY":8.25e-5,"INCLINATION":87.9165,"RA_OF_ASC_NODE":291.2108,"ARG_OF_PERICENTER":77.3609,"MEAN_ANOMALY":282.7617,"EPHEMERIS_TYPE":0,"CLASSIFICATION_TYPE":"U","NORAD_CAT_ID":56717,"ELEMENT_SET_NO":999,"REV_AT_EPOCH":11981,"BSTAR":0.011533,"MEAN_MOTION_DOT":4.776e-5,"MEAN_MOTION_DDOT":0},{"OBJECT_NAME":"ONEWEB-0682","OBJECT_ID":"2023-068J","EPOCH":"2025-10-23T10:04:20.301024","MEAN_MOTION":13.15547329,"ECCENTRICITY":0.0002007,"INCLINATION":87.8963,"RA_OF_ASC_NODE":306.4509,"ARG_OF_PERICENTER":77.9764,"MEAN_ANOMALY":282.1591,"EPHEMERIS_TYPE":0,"CLASSIFICATION_TYPE":"U","NORAD_CAT_ID":56718,"ELEMENT_SET_NO":999,"REV_AT_EPOCH":11832,"BSTAR":0.00012362,"MEAN_MOTION_DOT":5.9e-7,"MEAN_MOTION_DDOT":0},{"OBJECT_NAME":"ONEWEB-0683","OBJECT_ID":"2023-068K","EPOCH":"2025-10-23T10:35:09.032064","MEAN_MOTION":13.15547871,"ECCENTRICITY":0.0001986,"INCLINATION":87.8967,"RA_OF_ASC_NODE":306.4268,"ARG_OF_PERICENTER":85.2951,"MEAN_ANOMALY":274.8406,"EPHEMERIS_TYPE":0,"CLASSIFICATION_TYPE":"U","NORAD_CAT_ID":56719,"ELEMENT_SET_NO":999,"REV_AT_EPOCH":11829,"BSTAR":-0.00022944,"MEAN_MOTION_DOT":-7.4e-7,"MEAN_MOTION_DDOT":0},{"OBJECT_NAME":"ONEWEB-0684","OBJECT_ID":"2023-068L","EPOCH":"2025-10-23T10:46:33.335616","MEAN_MOTION":13.15548419,"ECCENTRICITY":0.000284,"INCLINATION":87.8966,"RA_OF_ASC_NODE":306.4208,"ARG_OF_PERICENTER":118.0411,"MEAN_ANOMALY":242.1006,"EPHEMERIS_TYPE":0,"CLASSIFICATION_TYPE":"U","NORAD_CAT_ID":56720,"ELEMENT_SET_NO":999,"REV_AT_EPOCH":11812,"BSTAR":-0.0001016,"MEAN_MOTION_DOT":-2.5e-7,"MEAN_MOTION_DDOT":0},{"OBJECT_NAME":"ONEWEB-0686","OBJECT_ID":"2023-068M","EPOCH":"2025-10-23T10:29:29.486112","MEAN_MOTION":13.16595042,"ECCENTRICITY":0.0002212,"INCLINATION":87.8974,"RA_OF_ASC_NODE":275.9588,"ARG_OF_PERICENTER":84.5993,"MEAN_ANOMALY":275.539,"EPHEMERIS_TYPE":0,"CLASSIFICATION_TYPE":"U","NORAD_CAT_ID":56721,"ELEMENT_SET_NO":999,"REV_AT_EPOCH":12056,"BSTAR":-8.3145e-5,"MEAN_MOTION_DOT":-1.9e-7,"MEAN_MOTION_DDOT":0},{"OBJECT_NAME":"ONEWEB-0694","OBJECT_ID":"2023-068N","EPOCH":"2025-10-23T11:31:01.955136","MEAN_MOTION":13.16599407,"ECCENTRICITY":0.0002154,"INCLINATION":87.8993,"RA_OF_ASC_NODE":275.8871,"ARG_OF_PERICENTER":76.6982,"MEAN_ANOMALY":283.4389,"EPHEMERIS_TYPE":0,"CLASSIFICATION_TYPE":"U","NORAD_CAT_ID":56722,"ELEMENT_SET_NO":999,"REV_AT_EPOCH":12062,"BSTAR":0.00012288,"MEAN_MOTION_DOT":6.0e-7,"MEAN_MOTION_DDOT":0},{"OBJECT_NAME":"ONEWEB-0696","OBJECT_ID":"2023-068P","EPOCH":"2025-10-23T11:34:27.486912","MEAN_MOTION":13.15549442,"ECCENTRICITY":0.000184,"INCLINATION":87.8963,"RA_OF_ASC_NODE":306.4703,"ARG_OF_PERICENTER":102.2128,"MEAN_ANOMALY":257.9209,"EPHEMERIS_TYPE":0,"CLASSIFICATION_TYPE":"U","NORAD_CAT_ID":56723,"ELEMENT_SET_NO":999,"REV_AT_EPOCH":11824,"BSTAR":0.00043087,"MEAN_MOTION_DOT":1.75e-6,"MEAN_MOTION_DDOT":0}]
