ONEWEB-0647             
1 56079U 23043AK  25296.51079304 -.00000103  00000+0 -30818-3 0  9990
2 56079  87.8965 306.4684 0001732  96.5494 263.5834 13.15547889125306
ONEWEB-0651             
1 56080U 23043AL  25296.50602098 -.00000290  00000+0 -80516-3 0  9990
2 56080  87.8967 306.4617 0001612  86.5779 273.5535 13.15548245126507
ONEWEB-0718             
1 56081U 23043AM  25296.50129088 -.00000025  00000+0 -10142-3 0  9998
2 56081  87.8967 306.4434 0002357  85.7892 274.3508 13.15549834125311
ONEWEB-0561             
1 56710U 23068A   25296.53356536 -.00000029  00000+0 -10329-3 0  9998
2 56710  87.9197 321.6509 0001448 103.4449 256.6846 13.20770610118262
ONEWEB-0668             
1 56711U 23068B   25296.66671295  .00013059  00000+0  33381-1 0  9991
2 56711  87.8989 275.8782 0002221  80.2639   9.3331 13.18000129  5105
ONEWEB-0676             
1 56712U 23068C   25296.70630837  .00000141  00000+0  33503-3 0  9990
2 56712  87.8983 275.8856 0001744  87.4716 272.6615 13.16596694120581
ONEWEB-0677             
1 56713U 23068D   25296.44676602 -.00000023  00000+0 -88371-4 0  9997
2 56713  87.9204 321.6466 0001753  90.5771 269.5564 13.20771251118553
ONEWEB-0678             
1 56714U 23068E   25296.46959531  .00000133  00000+0  31955-3 0  9990
2 56714  87.8967 306.4235 0001849 103.2093 256.9243 13.15548774118166
ONEWEB-0679             
1 56715U 23068F   25296.43728617 -.00000045  00000+0 -15172-3 0  9994
2 56715  87.8977 275.9260 0001791  69.5934 290.5389 13.16594584120574
ONEWEB-0680             
1 56716U 23068G   25296.46971596 -.00003873  00000+0 -94091-2 0  9992
2 56716  87.9170 291.1885 0002202  73.7564 286.3812 13.21848920119820
ONEWEB-0681             
1 56717U 23068H   25296.44912497  .00004776  00000+0  11533-1 0  9996
2 56717  87.9165 291.2108 0000825  77.3609 282.7617 13.21788560119818
ONEWEB-0682             
1 56718U 23068J   25296.41967941  .00000059  00000+0  12362-3 0  9991
2 56718  87.8963 306.4509 0002007  77.9764 282.1591 13.15547329118329
ONEWEB-0683             
1 56719U 23068K   25296.44107676 -.00000074  00000+0 -22944-3 0  9992
2 56719  87.8967 306.4268 0001986  85.2951 274.8406 13.15547871118292
ONEWEB-0684             
1 56720U 23068L   25296.44899694 -.00000025  00000+0 -10160-3 0  9995
2 56720  87.8966 306.4208 0002840 118.0411 242.1006 13.15548419118128
ONEWEB-0686             
1 56721U 23068M   25296.43714683 -.00000019  00000+0 -83145-4 0  9996
2 56721  87.8974 275.9588 0002212  84.5993 275.5390 13.16595042120566
ONEWEB-0694             
1 56722U 23068N   25296.47988374  .00000060  00000+0  12288-3 0  9994
2 56722  87.8993 275.8871 0002154  76.6982 283.4389 13.16599407120629
ONEWEB-0696             
1 56723U 23068P   25296.48226258  .00000175  00000+0  43087-3 0  9990
2 56723  87.8963 306.4703 0001840 102.2128 257.9209 13.15549442118246
